[{
    "OBJECT_NAME": "STARLINK-5461",
    "OBJECT_ID": "2023-021AW",
    "EPOCH": "2023-07-16T19:40:23.425248",
    "MEAN_MOTION": 15.6993214,
    "ECCENTRICITY": 0.0003756,
    "INCLINATION": 69.9998,
    "RA_OF_ASC_NODE": 90.8646,
    "ARG_OF_PERICENTER": 261.1017,
    "MEAN_ANOMALY": 98.9754,
    "EPHEMERIS_TYPE": 0,
    "CLASSIFICATION_TYPE": "U",
    "NORAD_CAT_ID": 55672,
    "ELEMENT_SET_NO": 999,
    "REV_AT_EPOCH": 2393,
    "BSTAR": 5.0729e-6,
    "MEAN_MOTION_DOT": 3.97e-6,
    "MEAN_MOTION_DDOT": 0
},{
    "OBJECT_NAME": "STARLINK-5463",
    "OBJECT_ID": "2023-021AX",
    "EPOCH": "2023-07-16T19:40:50.501280",
    "MEAN_MOTION": 15.69939708,
    "ECCENTRICITY": 0.0003779,
    "INCLINATION": 69.9974,
    "RA_OF_ASC_NODE": 90.8648,
    "ARG_OF_PERICENTER": 268.5094,
    "MEAN_ANOMALY": 91.5669,
    "EPHEMERIS_TYPE": 0,
    "CLASSIFICATION_TYPE": "U",
    "NORAD_CAT_ID": 55673,
    "ELEMENT_SET_NO": 999,
    "REV_AT_EPOCH": 2393,
    "BSTAR": -4.0098e-6,
    "MEAN_MOTION_DOT": -6.96e-6,
    "MEAN_MOTION_DDOT": 0
},{
    "OBJECT_NAME": "STARLINK-5462",
    "OBJECT_ID": "2023-021AY",
    "EPOCH": "2023-07-16T21:12:17.564832",
    "MEAN_MOTION": 15.69934577,
    "ECCENTRICITY": 0.0003647,
    "INCLINATION": 69.9995,
    "RA_OF_ASC_NODE": 90.6854,
    "ARG_OF_PERICENTER": 263.5778,
    "MEAN_ANOMALY": 96.5003,
    "EPHEMERIS_TYPE": 0,
    "CLASSIFICATION_TYPE": "U",
    "NORAD_CAT_ID": 55674,
    "ELEMENT_SET_NO": 999,
    "REV_AT_EPOCH": 2394,
    "BSTAR": 1.715e-5,
    "MEAN_MOTION_DOT": 1.851e-5,
    "MEAN_MOTION_DDOT": 0
},{
    "OBJECT_NAME": "STARLINK-5232",
    "OBJECT_ID": "2023-021AZ",
    "EPOCH": "2023-07-16T02:51:44.103744",
    "MEAN_MOTION": 15.69924818,
    "ECCENTRICITY": 0.0003093,
    "INCLINATION": 69.9997,
    "RA_OF_ASC_NODE": 92.8348,
    "ARG_OF_PERICENTER": 262.1462,
    "MEAN_ANOMALY": 97.9382,
    "EPHEMERIS_TYPE": 0,
    "CLASSIFICATION_TYPE": "U",
    "NORAD_CAT_ID": 55675,
    "ELEMENT_SET_NO": 999,
    "REV_AT_EPOCH": 2382,
    "BSTAR": 1.1912e-5,
    "MEAN_MOTION_DOT": 1.22e-5,
    "MEAN_MOTION_DDOT": 0
},{
    "OBJECT_NAME": "STARLINK-5300",
    "OBJECT_ID": "2023-021BA",
    "EPOCH": "2023-07-16T10:29:34.755648",
    "MEAN_MOTION": 15.69925439,
    "ECCENTRICITY": 0.0003753,
    "INCLINATION": 69.9992,
    "RA_OF_ASC_NODE": 91.9368,
    "ARG_OF_PERICENTER": 265.9261,
    "MEAN_ANOMALY": 94.1506,
    "EPHEMERIS_TYPE": 0,
    "CLASSIFICATION_TYPE": "U",
    "NORAD_CAT_ID": 55676,
    "ELEMENT_SET_NO": 999,
    "REV_AT_EPOCH": 2387,
    "BSTAR": 9.4119e-6,
    "MEAN_MOTION_DOT": 9.19e-6,
    "MEAN_MOTION_DDOT": 0
},{
    "OBJECT_NAME": "STARLINK-5324",
    "OBJECT_ID": "2023-021BB",
    "EPOCH": "2023-07-16T16:36:26.110368",
    "MEAN_MOTION": 15.69932494,
    "ECCENTRICITY": 0.0003226,
    "INCLINATION": 69.9998,
    "RA_OF_ASC_NODE": 91.2198,
    "ARG_OF_PERICENTER": 259.8689,
    "MEAN_ANOMALY": 100.2142,
    "EPHEMERIS_TYPE": 0,
    "CLASSIFICATION_TYPE": "U",
    "NORAD_CAT_ID": 55677,
    "ELEMENT_SET_NO": 999,
    "REV_AT_EPOCH": 2391,
    "BSTAR": 1.8626e-5,
    "MEAN_MOTION_DOT": 2.028e-5,
    "MEAN_MOTION_DDOT": 0
},{
    "OBJECT_NAME": "STARLINK-5314",
    "OBJECT_ID": "2023-021BC",
    "EPOCH": "2023-07-16T16:37:11.538624",
    "MEAN_MOTION": 15.69931271,
    "ECCENTRICITY": 0.0003545,
    "INCLINATION": 69.9987,
    "RA_OF_ASC_NODE": 91.2217,
    "ARG_OF_PERICENTER": 262.5202,
    "MEAN_ANOMALY": 97.5591,
    "EPHEMERIS_TYPE": 0,
    "CLASSIFICATION_TYPE": "U",
    "NORAD_CAT_ID": 55678,
    "ELEMENT_SET_NO": 999,
    "REV_AT_EPOCH": 2391,
    "BSTAR": 7.3577e-6,
    "MEAN_MOTION_DOT": 6.72e-6,
    "MEAN_MOTION_DDOT": 0
},{
    "OBJECT_NAME": "STARLINK-30050",
    "OBJECT_ID": "2023-026A",
    "EPOCH": "2023-07-16T23:12:23.063040",
    "MEAN_MOTION": 15.71419854,
    "ECCENTRICITY": 0.0001618,
    "INCLINATION": 43.0013,
    "RA_OF_ASC_NODE": 166.7134,
    "ARG_OF_PERICENTER": 231.9983,
    "MEAN_ANOMALY": 128.0738,
    "EPHEMERIS_TYPE": 0,
    "CLASSIFICATION_TYPE": "U",
    "NORAD_CAT_ID": 55695,
    "ELEMENT_SET_NO": 999,
    "REV_AT_EPOCH": 2287,
    "BSTAR": 0.0002184,
    "MEAN_MOTION_DOT": 0.00028362,
    "MEAN_MOTION_DDOT": 0
},{
    "OBJECT_NAME": "STARLINK-30040",
    "OBJECT_ID": "2023-026C",
    "EPOCH": "2023-07-17T14:00:01.999872",
    "MEAN_MOTION": 15.77721229,
    "ECCENTRICITY": 0.0001744,
    "INCLINATION": 42.9951,
    "RA_OF_ASC_NODE": 157.4705,
    "ARG_OF_PERICENTER": 256.7354,
    "MEAN_ANOMALY": 37.711,
    "EPHEMERIS_TYPE": 0,
    "CLASSIFICATION_TYPE": "U",
    "NORAD_CAT_ID": 55697,
    "ELEMENT_SET_NO": 999,
    "REV_AT_EPOCH": 2303,
    "BSTAR": -0.00050176,
    "MEAN_MOTION_DOT": -0.00086415,
    "MEAN_MOTION_DDOT": 0
},{
    "OBJECT_NAME": "STARLINK-30055",
    "OBJECT_ID": "2023-026E",
    "EPOCH": "2023-07-17T08:08:02.228352",
    "MEAN_MOTION": 15.7136695,
    "ECCENTRICITY": 9.06e-5,
    "INCLINATION": 43.0015,
    "RA_OF_ASC_NODE": 164.3269,
    "ARG_OF_PERICENTER": 206.4143,
    "MEAN_ANOMALY": 153.6679,
    "EPHEMERIS_TYPE": 0,
    "CLASSIFICATION_TYPE": "U",
    "NORAD_CAT_ID": 55699,
    "ELEMENT_SET_NO": 999,
    "REV_AT_EPOCH": 2293,
    "BSTAR": 0.00011304,
    "MEAN_MOTION_DOT": 0.00014404,
    "MEAN_MOTION_DDOT": 0
},{
    "OBJECT_NAME": "STARLINK-30064",
    "OBJECT_ID": "2023-026F",
    "EPOCH": "2023-07-16T04:51:38.624832",
    "MEAN_MOTION": 15.7135434,
    "ECCENTRICITY": 0.0002072,
    "INCLINATION": 42.9992,
    "RA_OF_ASC_NODE": 171.2912,
    "ARG_OF_PERICENTER": 247.5586,
    "MEAN_ANOMALY": 112.5063,
    "EPHEMERIS_TYPE": 0,
    "CLASSIFICATION_TYPE": "U",
    "NORAD_CAT_ID": 55700,
    "ELEMENT_SET_NO": 999,
    "REV_AT_EPOCH": 2275,
    "BSTAR": 8.4812e-6,
    "MEAN_MOTION_DOT": 6.6e-6,
    "MEAN_MOTION_DDOT": 0
},{
    "OBJECT_NAME": "STARLINK-30065",
    "OBJECT_ID": "2023-026G",
    "EPOCH": "2023-07-17T08:17:36.885120",
    "MEAN_MOTION": 15.71384123,
    "ECCENTRICITY": 0.0001395,
    "INCLINATION": 43.0047,
    "RA_OF_ASC_NODE": 164.3924,
    "ARG_OF_PERICENTER": 313.641,
    "MEAN_ANOMALY": 46.4342,
    "EPHEMERIS_TYPE": 0,
    "CLASSIFICATION_TYPE": "U",
    "NORAD_CAT_ID": 55701,
    "ELEMENT_SET_NO": 999,
    "REV_AT_EPOCH": 2293,
    "BSTAR": 8.5829e-5,
    "MEAN_MOTION_DOT": 0.00010831,
    "MEAN_MOTION_DDOT": 0
},{
    "OBJECT_NAME": "STARLINK-30042",
    "OBJECT_ID": "2023-026H",
    "EPOCH": "2023-07-17T00:00:00.999648",
    "MEAN_MOTION": 15.65056363,
    "ECCENTRICITY": 0.0001676,
    "INCLINATION": 42.9998,
    "RA_OF_ASC_NODE": 199.6377,
    "ARG_OF_PERICENTER": 218.1779,
    "MEAN_ANOMALY": 72.8862,
    "EPHEMERIS_TYPE": 0,
    "CLASSIFICATION_TYPE": "U",
    "NORAD_CAT_ID": 55702,
    "ELEMENT_SET_NO": 999,
    "REV_AT_EPOCH": 2250,
    "BSTAR": 0.0023331,
    "MEAN_MOTION_DOT": 0.00242966,
    "MEAN_MOTION_DDOT": 0
},{
    "OBJECT_NAME": "STARLINK-30051",
    "OBJECT_ID": "2023-026K",
    "EPOCH": "2023-07-17T14:00:01.999872",
    "MEAN_MOTION": 15.71448903,
    "ECCENTRICITY": 0.0001274,
    "INCLINATION": 42.9998,
    "RA_OF_ASC_NODE": 195.9472,
    "ARG_OF_PERICENTER": 329.5071,
    "MEAN_ANOMALY": 97.6965,
    "EPHEMERIS_TYPE": 0,
    "CLASSIFICATION_TYPE": "U",
    "NORAD_CAT_ID": 55704,
    "ELEMENT_SET_NO": 999,
    "REV_AT_EPOCH": 2259,
    "BSTAR": -0.00062057,
    "MEAN_MOTION_DOT": -0.00081355,
    "MEAN_MOTION_DDOT": 0
}]
