STARLINK-5461
1 55672U 23021AW  23197.81971557  .00000397  00000+0  50729-5 0  9994
2 55672  69.9998  90.8646 0003756 261.1017  98.9754 15.69932140 23938
STARLINK-5463
1 55673U 23021AX  23197.82002895 -.00000696  00000+0 -40098-5 0  9998
2 55673  69.9974  90.8648 0003779 268.5094  91.5669 15.69939708 23937
STARLINK-5462
1 55674U 23021AY  23197.88353663  .00001851  00000+0  17150-4 0  9991
2 55674  69.9995  90.6854 0003647 263.5778  96.5003 15.69934577 23943
STARLINK-5232
1 55675U 23021AZ  23197.11926046  .00001220  00000+0  11912-4 0  9999
2 55675  69.9997  92.8348 0003093 262.1462  97.9382 15.69924818 23827
STARLINK-5300
1 55676U 23021BA  23197.43720782  .00000919  00000+0  94119-5 0  9999
2 55676  69.9992  91.9368 0003753 265.9261  94.1506 15.69925439 23878
STARLINK-5324
1 55677U 23021BB  23197.69196887  .00002028  00000+0  18626-4 0  9992
2 55677  69.9998  91.2198 0003226 259.8689 100.2142 15.69932494 23919
STARLINK-5314
1 55678U 23021BC  23197.69249466  .00000672  00000+0  73577-5 0  9995
2 55678  69.9987  91.2217 0003545 262.5202  97.5591 15.69931271 23914
STARLINK-30050
1 55695U 23026A   23197.96693360  .00028362  00000+0  21840-3 0  9995
2 55695  43.0013 166.7134 0001618 231.9983 128.0738 15.71419854 22875
STARLINK-30040
1 55697U 23026C   23198.58335648 -.00086415  00000+0 -50176-3 0  9997
2 55697  42.9951 157.4705 0001744 256.7354  37.7110 15.77721229 23031
STARLINK-30055
1 55699U 23026E   23198.33891468  .00014404  00000+0  11304-3 0  9996
2 55699  43.0015 164.3269 0000906 206.4143 153.6679 15.71366950 22931
STARLINK-30064
1 55700U 23026F   23197.20253038  .00000660  00000+0  84812-5 0  9994
2 55700  42.9992 171.2912 0002072 247.5586 112.5063 15.71354340 22752
STARLINK-30065
1 55701U 23026G   23198.34556580  .00010831  00000+0  85829-4 0  9998
2 55701  43.0047 164.3924 0001395 313.6410  46.4342 15.71384123 22937
STARLINK-30042
1 55702U 23026H   23198.00001157  .00242966  00000+0  23331-2 0  9991
2 55702  42.9998 199.6377 0001676 218.1779  72.8862 15.65056363 22501
STARLINK-30051
1 55704U 23026K   23198.58335648 -.00081355  00000+0 -62057-3 0  9995
2 55704  42.9998 195.9472 0001274 329.5071  97.6965 15.71448903 22594
